OBJECT_NAME,OBJECT_ID,EPOCH,MEAN_MOTION,ECCENTRICITY,INCLINATION,RA_OF_ASC_NODE,ARG_OF_PERICENTER,MEAN_ANOMALY,EPHEMERIS_TYPE,CLASSIFICATION_TYPE,NORAD_CAT_ID,ELEMENT_SET_NO,REV_AT_EPOCH,BSTAR,MEAN_MOTION_DOT,MEAN_MOTION_DDOT
IRIDIUM 135,2017-083A,2026-07-15T09:47:15.191808,14.34218156,.00022045,86.3986,310.2189,94.0705,266.0743,0,U,43070,999,44819,.21432865E-4,.8E-6,0
IRIDIUM 138,2017-083B,2026-07-15T08:43:19.068096,14.34218678,.00020586,86.3999,309.9372,92.0704,268.0728,0,U,43071,999,44817,.4083612E-4,.134E-5,0
IRIDIUM 116,2017-083C,2026-07-15T09:38:07.077120,14.34217852,.00024543,86.3986,310.2072,98.3954,261.7520,0,U,43072,999,44821,.39573959E-4,.131E-5,0
IRIDIUM 130,2017-083D,2026-07-15T08:52:27.406560,14.34217993,.00022662,86.3993,310.4984,100.6500,259.4951,0,U,43073,999,44815,.40800104E-4,.134E-5,0
IRIDIUM 151,2017-083E,2026-07-15T09:56:23.214912,14.34218195,.00022554,86.3986,310.2603,95.2630,264.8823,0,U,43074,999,44818,.39658237E-4,.131E-5,0
IRIDIUM 134,2017-083F,2026-07-15T09:10:43.197024,14.34218071,.00022272,86.3988,310.2820,95.1739,264.9711,0,U,43075,999,44814,.20758094E-4,.78E-6,0
IRIDIUM 137,2017-083G,2026-07-15T09:28:59.284704,14.34218176,.00027213,86.3991,310.3701,93.9421,266.2086,0,U,43076,999,44821,.23815665E-4,.86E-6,0
IRIDIUM 141,2017-083H,2026-07-15T09:19:51.152736,14.34217768,.00021746,86.3985,310.2017,93.2231,266.9213,0,U,43077,999,44821,.22368766E-4,.82E-6,0
IRIDIUM 153,2017-083J,2026-07-15T06:30:31.401792,14.34217888,.00021169,86.3959,278.7300,94.5036,265.6402,0,U,43078,999,44930,.17922754E-4,.7E-6,0
IRIDIUM 131,2017-083K,2026-07-15T09:01:35.179968,14.34218332,.00022262,86.3990,310.3948,93.6885,266.4565,0,U,43079,999,44814,.2725284E-4,.96E-6,0
IRIDIUM 144,2018-030A,2026-07-15T06:39:39.428352,14.34217949,.00023805,86.3957,278.6559,96.8926,263.2540,0,U,43249,999,43416,.16887988E-4,.67E-6,0
IRIDIUM 149,2018-030B,2026-07-15T06:48:47.443680,14.34218061,.00022628,86.3956,278.6198,93.1524,266.9931,0,U,43250,999,43418,.27739464E-4,.97E-6,0
IRIDIUM 157,2018-030C,2026-07-15T05:35:43.642464,14.34218060,.00022538,86.3960,278.6951,94.2199,265.9254,0,U,43251,999,43415,.43165042E-4,.141E-5,0
IRIDIUM 140,2018-030D,2026-07-15T07:43:35.655744,14.34217690,.00022378,86.3958,278.6705,95.7912,264.3539,0,U,43252,999,43422,.45313051E-4,.147E-5,0
IRIDIUM 145,2018-030E,2026-07-15T07:25:19.393536,14.34217461,.00025431,86.3957,278.6477,100.4482,259.7000,0,U,43253,999,43415,.33886785E-4,.115E-5,0
IRIDIUM 146,2018-030F,2026-07-15T06:57:55.429632,14.34217577,.00023758,86.3959,278.6680,96.3853,263.7614,0,U,43254,999,43416,.16690871E-4,.67E-6,0
IRIDIUM 148,2018-030G,2026-07-15T07:52:43.697856,14.34218054,.00023385,86.3960,278.6955,93.4578,266.6885,0,U,43255,999,43420,.4374605E-4,.142E-5,0
IRIDIUM 142,2018-030H,2026-07-15T07:07:03.471744,14.34217986,.00024424,86.3954,278.5967,96.9368,263.2106,0,U,43256,999,43416,.22338424E-4,.82E-6,0
IRIDIUM 150,2018-030J,2026-07-15T04:40:55.306848,14.34216004,.00021691,86.3956,278.7566,95.4767,264.6676,0,U,43257,999,43417,-.71752641E-4,-.181E-5,0
IRIDIUM 143,2018-030K,2026-07-15T07:34:27.535872,14.34217506,.00023317,86.3962,278.7996,97.3921,262.7540,0,U,43258,999,43412,.19185599E-4,.74E-6,0
IRIDIUM 161,2018-047C,2026-07-15T04:17:15.061920,14.43275694,.0002265,86.4462,76.7652,80.7989,279.3468,0,U,43478,999,42917,.40362059E-4,.156E-5,0
IRIDIUM 152,2018-047D,2026-07-15T03:34:14.367360,14.34218388,.00021645,86.3936,76.6390,83.7321,276.4121,0,U,43479,999,42649,.43748811E-4,.142E-5,0
IRIDIUM 147,2018-047E,2026-07-15T03:43:22.245312,14.34217314,.00022624,86.3939,76.6420,88.4126,271.7329,0,U,43480,999,42649,.23243776E-4,.85E-6,0
IRIDIUM 110,2018-047F,2026-07-15T03:52:30.203616,14.34218629,.00021179,86.3941,76.7320,77.5222,282.6210,0,U,43481,999,42648,.48525903E-4,.156E-5,0
IRIDIUM 162,2018-047G,2026-07-15T04:08:11.183424,14.43278508,.00022002,86.4460,76.6584,86.9927,273.1526,0,U,43482,999,42916,.5163908E-4,.194E-5,0
IRIDIUM 160,2018-061A,2026-07-15T12:37:18.422688,14.34217119,.00022377,86.3939,44.9434,86.9733,273.1719,0,U,43569,999,41743,.37228617E-4,.124E-5,0
IRIDIUM 166,2018-061B,2026-07-15T13:13:50.500416,14.34217835,.0002281,86.3938,44.8830,89.7669,270.3788,0,U,43570,999,41746,.21683184E-4,.81E-6,0
IRIDIUM 158,2018-061C,2026-07-15T12:28:10.450560,14.34217880,.00020852,86.3939,44.9059,87.7247,272.4188,0,U,43571,999,41742,.20198583E-4,.76E-6,0
IRIDIUM 165,2018-061D,2026-07-15T13:04:42.560256,14.34217053,.0002284,86.3939,44.9420,91.0558,269.0900,0,U,43572,999,41745,.2568262E-5,.27E-6,0
IRIDIUM 155,2018-061E,2026-07-15T12:09:54.440640,14.34217784,.00021008,86.3936,44.8262,89.9376,270.2060,0,U,43573,999,41741,.26604935E-4,.94E-6,0
